{"fetched_at":"2026-07-17T06:37:54.961Z","source":"https://celestrak.org/NORAD/elements/gp.php?GROUP=qianfan&FORMAT=JSON","constellation":"qianfan","records":[{"OBJECT_NAME":"QIANFAN-145","OBJECT_ID":"2026-108A","EPOCH":"2026-07-16T18:05:23.930880","CLASSIFICATION_TYPE":"U","MEAN_MOTION":13.62900676,"ECCENTRICITY":0.0018422,"INCLINATION":89.0097,"RA_OF_ASC_NODE":19.1004,"ARG_OF_PERICENTER":10.1089,"MEAN_ANOMALY":350.0436,"EPHEMERIS_TYPE":0,"NORAD_CAT_ID":69104,"ELEMENT_SET_NO":999,"REV_AT_EPOCH":842,"BSTAR":-2.7796,"MEAN_MOTION_DOT":-0.02033703,"MEAN_MOTION_DDOT":0},{"OBJECT_NAME":"QIANFAN-146","OBJECT_ID":"2026-108B","EPOCH":"2026-07-16T19:56:03.623136","CLASSIFICATION_TYPE":"U","MEAN_MOTION":13.84394721,"ECCENTRICITY":0.0020079,"INCLINATION":89.0112,"RA_OF_ASC_NODE":18.9891,"ARG_OF_PERICENTER":20.7976,"MEAN_ANOMALY":339.4006,"EPHEMERIS_TYPE":0,"NORAD_CAT_ID":69105,"ELEMENT_SET_NO":999,"REV_AT_EPOCH":849,"BSTAR":0.0000098698,"MEAN_MOTION_DOT":2.4e-7,"MEAN_MOTION_DDOT":0},{"OBJECT_NAME":"QIANFAN-147","OBJECT_ID":"2026-108C","EPOCH":"2026-07-16T19:50:57.933888","CLASSIFICATION_TYPE":"U","MEAN_MOTION":13.59236369,"ECCENTRICITY":0.0019135,"INCLINATION":89.0109,"RA_OF_ASC_NODE":19.0929,"ARG_OF_PERICENTER":16.5114,"MEAN_ANOMALY":343.6661,"EPHEMERIS_TYPE":0,"NORAD_CAT_ID":69106,"ELEMENT_SET_NO":999,"REV_AT_EPOCH":842,"BSTAR":0.000010215,"MEAN_MOTION_DOT":2e-7,"MEAN_MOTION_DDOT":0},{"OBJECT_NAME":"QIANFAN-148","OBJECT_ID":"2026-108D","EPOCH":"2026-07-16T19:37:46.265376","CLASSIFICATION_TYPE":"U","MEAN_MOTION":13.62077227,"ECCENTRICITY":0.0022043,"INCLINATION":89.01,"RA_OF_ASC_NODE":19.0893,"ARG_OF_PERICENTER":23.701,"MEAN_ANOMALY":336.5158,"EPHEMERIS_TYPE":0,"NORAD_CAT_ID":69107,"ELEMENT_SET_NO":999,"REV_AT_EPOCH":842,"BSTAR":-0.000011628,"MEAN_MOTION_DOT":3e-8,"MEAN_MOTION_DDOT":0},{"OBJECT_NAME":"QIANFAN-149","OBJECT_ID":"2026-108E","EPOCH":"2026-07-16T17:05:44.011680","CLASSIFICATION_TYPE":"U","MEAN_MOTION":13.56828371,"ECCENTRICITY":0.0021186,"INCLINATION":89.0096,"RA_OF_ASC_NODE":19.1125,"ARG_OF_PERICENTER":24.3964,"MEAN_ANOMALY":335.8189,"EPHEMERIS_TYPE":0,"NORAD_CAT_ID":69108,"ELEMENT_SET_NO":999,"REV_AT_EPOCH":841,"BSTAR":-2.9943,"MEAN_MOTION_DOT":-0.01991671,"MEAN_MOTION_DDOT":0},{"OBJECT_NAME":"QIANFAN-150","OBJECT_ID":"2026-108F","EPOCH":"2026-07-16T19:08:27.321216","CLASSIFICATION_TYPE":"U","MEAN_MOTION":13.62162125,"ECCENTRICITY":0.0017243,"INCLINATION":89.01,"RA_OF_ASC_NODE":19.072,"ARG_OF_PERICENTER":19.9718,"MEAN_ANOMALY":340.2111,"EPHEMERIS_TYPE":0,"NORAD_CAT_ID":69109,"ELEMENT_SET_NO":999,"REV_AT_EPOCH":843,"BSTAR":-2.8521,"MEAN_MOTION_DOT":-0.02060106,"MEAN_MOTION_DDOT":0},{"OBJECT_NAME":"QIANFAN-151","OBJECT_ID":"2026-108G","EPOCH":"2026-07-16T16:41:12.999840","CLASSIFICATION_TYPE":"U","MEAN_MOTION":13.61803112,"ECCENTRICITY":0.0018164,"INCLINATION":89.01,"RA_OF_ASC_NODE":19.093,"ARG_OF_PERICENTER":12.7101,"MEAN_ANOMALY":347.4511,"EPHEMERIS_TYPE":0,"NORAD_CAT_ID":69110,"ELEMENT_SET_NO":999,"REV_AT_EPOCH":841,"BSTAR":-2.8835,"MEAN_MOTION_DOT":-0.02070299,"MEAN_MOTION_DDOT":0},{"OBJECT_NAME":"QIANFAN-152","OBJECT_ID":"2026-108H","EPOCH":"2026-07-16T15:59:49.235712","CLASSIFICATION_TYPE":"U","MEAN_MOTION":13.60287087,"ECCENTRICITY":0.0018277,"INCLINATION":89.0098,"RA_OF_ASC_NODE":19.0874,"ARG_OF_PERICENTER":10.8181,"MEAN_ANOMALY":349.3364,"EPHEMERIS_TYPE":0,"NORAD_CAT_ID":69111,"ELEMENT_SET_NO":999,"REV_AT_EPOCH":842,"BSTAR":-2.6719,"MEAN_MOTION_DOT":-0.01864893,"MEAN_MOTION_DDOT":0},{"OBJECT_NAME":"QIANFAN-153","OBJECT_ID":"2026-108J","EPOCH":"2026-07-16T18:09:31.187808","CLASSIFICATION_TYPE":"U","MEAN_MOTION":13.68719779,"ECCENTRICITY":0.0025413,"INCLINATION":89.0092,"RA_OF_ASC_NODE":19.0796,"ARG_OF_PERICENTER":26.0479,"MEAN_ANOMALY":334.1955,"EPHEMERIS_TYPE":0,"NORAD_CAT_ID":69112,"ELEMENT_SET_NO":999,"REV_AT_EPOCH":842,"BSTAR":-2.5569,"MEAN_MOTION_DOT":-0.020564,"MEAN_MOTION_DDOT":0},{"OBJECT_NAME":"QIANFAN-154","OBJECT_ID":"2026-108K","EPOCH":"2026-07-16T18:59:29.322240","CLASSIFICATION_TYPE":"U","MEAN_MOTION":13.55547421,"ECCENTRICITY":0.002088,"INCLINATION":89.0104,"RA_OF_ASC_NODE":19.09,"ARG_OF_PERICENTER":26.7253,"MEAN_ANOMALY":333.4972,"EPHEMERIS_TYPE":0,"NORAD_CAT_ID":69113,"ELEMENT_SET_NO":999,"REV_AT_EPOCH":843,"BSTAR":-3.015,"MEAN_MOTION_DOT":-0.01966605,"MEAN_MOTION_DDOT":0},{"OBJECT_NAME":"QIANFAN-155","OBJECT_ID":"2026-108L","EPOCH":"2026-07-16T19:20:28.361184","CLASSIFICATION_TYPE":"U","MEAN_MOTION":13.60997309,"ECCENTRICITY":0.0019221,"INCLINATION":89.0104,"RA_OF_ASC_NODE":19.0738,"ARG_OF_PERICENTER":10.3544,"MEAN_ANOMALY":349.8004,"EPHEMERIS_TYPE":0,"NORAD_CAT_ID":69114,"ELEMENT_SET_NO":999,"REV_AT_EPOCH":843,"BSTAR":-2.5585,"MEAN_MOTION_DOT":-0.01810163,"MEAN_MOTION_DDOT":0},{"OBJECT_NAME":"QIANFAN-156","OBJECT_ID":"2026-108M","EPOCH":"2026-07-16T15:58:37.253280","CLASSIFICATION_TYPE":"U","MEAN_MOTION":13.63663717,"ECCENTRICITY":0.002222,"INCLINATION":89.0116,"RA_OF_ASC_NODE":19.0768,"ARG_OF_PERICENTER":16.8799,"MEAN_ANOMALY":343.3094,"EPHEMERIS_TYPE":0,"NORAD_CAT_ID":69115,"ELEMENT_SET_NO":999,"REV_AT_EPOCH":843,"BSTAR":-2.6519,"MEAN_MOTION_DOT":-0.01969463,"MEAN_MOTION_DDOT":0},{"OBJECT_NAME":"QIANFAN-157","OBJECT_ID":"2026-108N","EPOCH":"2026-07-16T19:09:12.074688","CLASSIFICATION_TYPE":"U","MEAN_MOTION":13.70625026,"ECCENTRICITY":0.0020984,"INCLINATION":89.0093,"RA_OF_ASC_NODE":19.0155,"ARG_OF_PERICENTER":30.4509,"MEAN_ANOMALY":329.7867,"EPHEMERIS_TYPE":0,"NORAD_CAT_ID":69116,"ELEMENT_SET_NO":999,"REV_AT_EPOCH":847,"BSTAR":-2.478,"MEAN_MOTION_DOT":-0.02054649,"MEAN_MOTION_DDOT":0},{"OBJECT_NAME":"QIANFAN-158","OBJECT_ID":"2026-108P","EPOCH":"2026-07-16T16:08:16.477152","CLASSIFICATION_TYPE":"U","MEAN_MOTION":13.64880214,"ECCENTRICITY":0.0022348,"INCLINATION":89.0099,"RA_OF_ASC_NODE":19.0523,"ARG_OF_PERICENTER":27.0386,"MEAN_ANOMALY":333.1932,"EPHEMERIS_TYPE":0,"NORAD_CAT_ID":69117,"ELEMENT_SET_NO":999,"REV_AT_EPOCH":844,"BSTAR":-2.5507,"MEAN_MOTION_DOT":-0.01914015,"MEAN_MOTION_DDOT":0},{"OBJECT_NAME":"QIANFAN-159","OBJECT_ID":"2026-108Q","EPOCH":"2026-07-16T21:05:59.040384","CLASSIFICATION_TYPE":"U","MEAN_MOTION":13.64261241,"ECCENTRICITY":0.0020861,"INCLINATION":89.0094,"RA_OF_ASC_NODE":19.042,"ARG_OF_PERICENTER":21.0414,"MEAN_ANOMALY":339.1599,"EPHEMERIS_TYPE":0,"NORAD_CAT_ID":69118,"ELEMENT_SET_NO":999,"REV_AT_EPOCH":846,"BSTAR":0.0000049523,"MEAN_MOTION_DOT":1.6e-7,"MEAN_MOTION_DDOT":0},{"OBJECT_NAME":"QIANFAN-160","OBJECT_ID":"2026-108R","EPOCH":"2026-07-16T16:38:47.581728","CLASSIFICATION_TYPE":"U","MEAN_MOTION":13.58007203,"ECCENTRICITY":0.0021068,"INCLINATION":89.0107,"RA_OF_ASC_NODE":19.0759,"ARG_OF_PERICENTER":17.8492,"MEAN_ANOMALY":342.3398,"EPHEMERIS_TYPE":0,"NORAD_CAT_ID":69119,"ELEMENT_SET_NO":999,"REV_AT_EPOCH":843,"BSTAR":-2.9427,"MEAN_MOTION_DOT":-0.01994148,"MEAN_MOTION_DDOT":0}]}
