QIANFAN-145             
1 69104U 26108A   26197.75374920 -.02033703  00000+0 -27796+1 0  9999
2 69104  89.0097  19.1004 0018422  10.1089 350.0436 13.62900676  8421
QIANFAN-146             
1 69105U 26108B   26197.83059749  .00000024  00000+0  98698-5 0  9998
2 69105  89.0112  18.9891 0020079  20.7976 339.4006 13.84394721  8497
QIANFAN-147             
1 69106U 26108C   26197.82705942  .00000020  00000+0  10215-4 0  9995
2 69106  89.0109  19.0929 0019135  16.5114 343.6661 13.59236369  8428
QIANFAN-148             
1 69107U 26108D   26197.81789659  .00000003  00000+0 -11628-4 0  9993
2 69107  89.0100  19.0893 0022043  23.7010 336.5158 13.62077227  8429
QIANFAN-149             
1 69108U 26108E   26197.71231495 -.01991671  00000+0 -29943+1 0  9990
2 69108  89.0096  19.1125 0021186  24.3964 335.8189 13.56828371  8417
QIANFAN-150             
1 69109U 26108F   26197.79753844 -.02060106  00000+0 -28521+1 0  9998
2 69109  89.0100  19.0720 0017243  19.9718 340.2111 13.62162125  8432
QIANFAN-151             
1 69110U 26108G   26197.69528935 -.02070299  00000+0 -28835+1 0  9992
2 69110  89.0100  19.0930 0018164  12.7101 347.4511 13.61803112  8415
QIANFAN-152             
1 69111U 26108H   26197.66654208 -.01864893  00000+0 -26719+1 0  9992
2 69111  89.0098  19.0874 0018277  10.8181 349.3364 13.60287087  8425
QIANFAN-153             
1 69112U 26108J   26197.75661097 -.02056400  00000+0 -25569+1 0  9997
2 69112  89.0092  19.0796 0025413  26.0479 334.1955 13.68719779  8426
QIANFAN-154             
1 69113U 26108K   26197.79131160 -.01966605  00000+0 -30150+1 0  9993
2 69113  89.0104  19.0900 0020880  26.7253 333.4972 13.55547421  8439
QIANFAN-155             
1 69114U 26108L   26197.80588381 -.01810163  00000+0 -25585+1 0  9990
2 69114  89.0104  19.0738 0019221  10.3544 349.8004 13.60997309  8435
QIANFAN-156             
1 69115U 26108M   26197.66570895 -.01969463  00000+0 -26519+1 0  9992
2 69115  89.0116  19.0768 0022220  16.8799 343.3094 13.63663717  8432
QIANFAN-157             
1 69116U 26108N   26197.79805642 -.02054649  00000+0 -24780+1 0  9998
2 69116  89.0093  19.0155 0020984  30.4509 329.7867 13.70625026  8472
QIANFAN-158             
1 69117U 26108P   26197.67241293 -.01914015  00000+0 -25507+1 0  9991
2 69117  89.0099  19.0523 0022348  27.0386 333.1932 13.64880214  8443
QIANFAN-159             
1 69118U 26108Q   26197.87915556  .00000016  00000+0  49523-5 0  9997
2 69118  89.0094  19.0420 0020861  21.0414 339.1599 13.64261241  8469
QIANFAN-160             
1 69119U 26108R   26197.69360627 -.01994148  00000+0 -29427+1 0  9998
2 69119  89.0107  19.0759 0021068  17.8492 342.3398 13.58007203  8438
